[{"OBJECT_NAME":"STARLINK-31219","OBJECT_ID":"2024-019P","EPOCH":"2026-03-09T13:03:13.446432","MEAN_MOTION":15.27574371,"ECCENTRICITY":9.59e-5,"INCLINATION":43.0009,"RA_OF_ASC_NODE":249.4434,"ARG_OF_PERICENTER":255.0696,"MEAN_ANOMALY":105.005,"EPHEMERIS_TYPE":0,"CLASSIFICATION_TYPE":"U","NORAD_CAT_ID":58866,"ELEMENT_SET_NO":999,"REV_AT_EPOCH":11904,"BSTAR":-3.9344e-5,"MEAN_MOTION_DOT":-1.344e-5,"MEAN_MOTION_DDOT":0},{"OBJECT_NAME":"239ALFEROV (RS61S)","OBJECT_ID":"2025-155F","EPOCH":"2026-03-09T21:46:33.382848","MEAN_MOTION":15.29933217,"ECCENTRICITY":0.00084878,"INCLINATION":97.4469,"RA_OF_ASC_NODE":37.6373,"ARG_OF_PERICENTER":151.5904,"MEAN_ANOMALY":208.58,"EPHEMERIS_TYPE":0,"CLASSIFICATION_TYPE":"U","NORAD_CAT_ID":64881,"ELEMENT_SET_NO":999,"REV_AT_EPOCH":6561,"BSTAR":0.00067233359,"MEAN_MOTION_DOT":0.00019457,"MEAN_MOTION_DDOT":0}]
